0 ASTRID
1 23464U 95002B   13282.27585955  .00000081  00000-0  71559-4 0  7333
2 23464 082.9306 204.8775 0042475 060.5112 093.7268 13.72310347936812
0 ASTRID
1 23464U 95002B   13283.71006444  .00000086  00000-0  77428-4 0  7341
2 23464 082.9307 203.8182 0042441 056.6487 339.0345 13.72310703937019
0 ASTRID
1 23464U 95002B   13285.89910120  .00000100  00000-0  92105-4 0  7365
2 23464 082.9308 202.2013 0042344 050.7170 353.4283 13.72310795937317
0 ASTRID
1 23464U 95002B   13287.15684133  .00000115  00000-0  10857-3 0  7378
2 23464 082.9308 201.2724 0042276 047.2853 087.0057 13.72310813937486
0 ASTRID
1 23464U 95002B   13288.17986883  .00000145  00000-0  14109-3 0  7386
2 23464 082.9307 200.5168 0042179 044.4793 101.0543 13.72311107937623
0 ASTRID
1 23464U 95002B   13289.34525753  .00000128  00000-0  12249-3 0  7396
2 23464 082.9307 199.6562 0042125 041.3065 098.3846 13.72311338937785
0 ASTRID
1 23464U 95002B   13290.78597490  .00000134  00000-0  12896-3 0  7400
2 23464 082.9304 198.5923 0042045 037.3885 015.9087 13.72311714937989
0 ASTRID
1 23464U 95002B   13291.80737446  .00000136  00000-0  13111-3 0  7415
2 23464 082.9304 197.8380 0041997 034.6069 021.8975 13.72312003938128
0 ASTRID
1 23464U 95002B   13293.13776696  .00000126  00000-0  12034-3 0  7426
2 23464 082.9302 196.8556 0041912 030.9621 114.4173 13.72312385938302
0 ASTRID
1 23464U 95002B   13294.30244522  .00000111  00000-0  10493-3 0  7436
2 23464 082.9301 195.9954 0041859 027.8020 108.2318 13.72312787938466
0 ASTRID
1 23464U 95002B   13295.32381160  .00000102  00000-0  94862-4 0  7443
2 23464 082.9301 195.2410 0041784 024.9702 114.1100 13.72313086938602
